[{"OBJECT_NAME":"STARLINK-31890","OBJECT_ID":"2024-093D","EPOCH":"2026-03-09T10:02:52.120320","MEAN_MOTION":15.27575981,"ECCENTRICITY":0.00013255,"INCLINATION":42.998,"RA_OF_ASC_NODE":206.9937,"ARG_OF_PERICENTER":291.6017,"MEAN_ANOMALY":68.4693,"EPHEMERIS_TYPE":0,"CLASSIFICATION_TYPE":"U","NORAD_CAT_ID":59785,"ELEMENT_SET_NO":999,"REV_AT_EPOCH":10269,"BSTAR":-0.0001177882,"MEAN_MOTION_DOT":-3.501e-5,"MEAN_MOTION_DDOT":0},{"OBJECT_NAME":"KUIPER-00226","OBJECT_ID":"2026-030X","EPOCH":"2026-03-09T15:01:51.726432","MEAN_MOTION":15.30655594,"ECCENTRICITY":0.0017713,"INCLINATION":51.8814,"RA_OF_ASC_NODE":220.1252,"ARG_OF_PERICENTER":64.2781,"MEAN_ANOMALY":296.003,"EPHEMERIS_TYPE":0,"CLASSIFICATION_TYPE":"U","NORAD_CAT_ID":67785,"ELEMENT_SET_NO":999,"REV_AT_EPOCH":507,"BSTAR":0.001553,"MEAN_MOTION_DOT":0.00046834,"MEAN_MOTION_DDOT":0}]
