STARLINK-31890          
1 59785U 24093D   26068.41865880 -.00003501  00000+0 -11779-3 0  9992
2 59785  42.9980 206.9937 0001325 291.6017  68.4693 15.27575981102695
KUIPER-00226            
1 67785U 26030X   26068.62629313  .00046834  00000+0  15530-2 0  9998
2 67785  51.8814 220.1252 0017713  64.2781 296.0030 15.30655594  5078
